{"type":"FeatureCollection","features":[{"type":"Feature","id":"29201","properties":{"prefecture":"奈良県","subPrefecture":null,"county":null,"municipality":"奈良市","ward":null,"displayName":"奈良市"},"geometry":{"type":"MultiPolygon","coordinates":[[[[136.05486,34.70292],[136.04265,34.70295],[136.03539,34.69421],[136.02132,34.69504],[136.01775,34.68544],[135.9897,34.68649],[135.98631,34.69915],[135.9698,34.68573],[135.95283,34.6807],[135.96001,34.6706],[135.95702,34.65487],[135.97391,34.65461],[135.99357,34.66743],[135.98886,34.65618],[136.00006,34.64112],[135.99273,34.62817],[135.99959,34.61857],[135.99233,34.60958],[135.97859,34.60383],[135.98114,34.5963],[135.96956,34.58665],[135.97659,34.56533],[135.97205,34.55851],[135.94612,34.5603],[135.9444,34.56688],[135.92487,34.59033],[135.94057,34.60696],[135.93814,34.61303],[135.95082,34.62197],[135.93951,34.64203],[135.92528,34.64219],[135.9264,34.63221],[135.91516,34.62895],[135.89657,34.63491],[135.89186,34.6095],[135.87904,34.61312],[135.87325,34.60806],[135.8687,34.62058],[135.85477,34.61972],[135.8457,34.62664],[135.84686,34.63876],[135.82362,34.6372],[135.81623,34.64755],[135.79481,34.65202],[135.79431,34.66125],[135.77087,34.66137],[135.76462,34.65749],[135.72712,34.66515],[135.71715,34.69008],[135.71635,34.70722],[135.73672,34.71857],[135.74044,34.72792],[135.75551,34.72753],[135.77813,34.72317],[135.79196,34.72473],[135.81979,34.71169],[135.839,34.7118],[135.84902,34.70597],[135.86331,34.70624],[135.87614,34.71388],[135.89017,34.70944],[135.89739,34.73087],[135.91175,34.74385],[135.91616,34.75369],[135.92896,34.75684],[135.92392,34.74145],[135.94312,34.73775],[135.95492,34.74829],[135.95865,34.74026],[135.97278,34.74208],[135.98371,34.73441],[135.98616,34.71531],[136.00536,34.7173],[136.01387,34.7078],[136.02878,34.70635],[136.03945,34.72012],[136.04187,34.73428],[136.05548,34.73856],[136.07107,34.71468],[136.05486,34.70292]]]]}},{"type":"Feature","id":"29202","properties":{"prefecture":"奈良県","subPrefecture":null,"county":null,"municipality":"大和高田市","ward":null,"displayName":"大和高田市"},"geometry":{"type":"MultiPolygon","coordinates":[[[[135.76447,34.52949],[135.76601,34.51783],[135.75881,34.5146],[135.75915,34.48849],[135.7659,34.4884],[135.75387,34.47671],[135.75068,34.48167],[135.74196,34.48165],[135.74679,34.49167],[135.73509,34.49157],[135.7302,34.51032],[135.71846,34.51026],[135.71447,34.51929],[135.72025,34.53066],[135.72854,34.5312],[135.73848,34.52721],[135.75075,34.532],[135.76447,34.52949]]]]}},{"type":"Feature","id":"29203","properties":{"prefecture":"奈良県","subPrefecture":null,"county":null,"municipality":"大和郡山市","ward":null,"displayName":"大和郡山市"},"geometry":{"type":"MultiPolygon","coordinates":[[[[135.82362,34.6372],[135.82389,34.62521],[135.81328,34.62301],[135.81674,34.61163],[135.795,34.6123],[135.79517,34.60158],[135.7864,34.59585],[135.76751,34.59713],[135.76867,34.61016],[135.75694,34.61873],[135.72979,34.63161],[135.72158,34.64673],[135.72658,34.64891],[135.72712,34.66515],[135.76462,34.65749],[135.77087,34.66137],[135.79431,34.66125],[135.79481,34.65202],[135.81623,34.64755],[135.82362,34.6372]]]]}},{"type":"Feature","id":"29204","properties":{"prefecture":"奈良県","subPrefecture":null,"county":null,"municipality":"天理市","ward":null,"displayName":"天理市"},"geometry":{"type":"MultiPolygon","coordinates":[[[[135.92487,34.59033],[135.9088,34.59138],[135.9098,34.58406],[135.88705,34.56238],[135.87563,34.56128],[135.86188,34.54836],[135.83169,34.55242],[135.82615,34.54855],[135.82084,34.5606],[135.81152,34.56416],[135.81249,34.5739],[135.8051,34.58405],[135.7903,34.57786],[135.78658,34.58004],[135.79438,34.58692],[135.7864,34.59585],[135.79517,34.60158],[135.795,34.6123],[135.81674,34.61163],[135.81328,34.62301],[135.82389,34.62521],[135.82362,34.6372],[135.84686,34.63876],[135.8457,34.62664],[135.85477,34.61972],[135.8687,34.62058],[135.87325,34.60806],[135.87904,34.61312],[135.89186,34.6095],[135.89657,34.63491],[135.91516,34.62895],[135.9264,34.63221],[135.92528,34.64219],[135.93951,34.64203],[135.95082,34.62197],[135.93814,34.61303],[135.94057,34.60696],[135.92487,34.59033]]]]}},{"type":"Feature","id":"29205","properties":{"prefecture":"奈良県","subPrefecture":null,"county":null,"municipality":"橿原市","ward":null,"displayName":"橿原市"},"geometry":{"type":"MultiPolygon","coordinates":[[[[135.81846,34.535],[135.81883,34.51123],[135.82999,34.50227],[135.82655,34.48631],[135.8095,34.49552],[135.81213,34.48392],[135.80825,34.47077],[135.78844,34.46726],[135.77453,34.47117],[135.7636,34.46537],[135.75176,34.46474],[135.75387,34.47671],[135.7659,34.4884],[135.75915,34.48849],[135.75881,34.5146],[135.76601,34.51783],[135.76447,34.52949],[135.76986,34.53532],[135.79571,34.53082],[135.79558,34.53685],[135.81846,34.535]]]]}},{"type":"Feature","id":"29206","properties":{"prefecture":"奈良県","subPrefecture":null,"county":null,"municipality":"桜井市","ward":null,"displayName":"桜井市"},"geometry":{"type":"MultiPolygon","coordinates":[[[[135.92487,34.59033],[135.9444,34.56688],[135.94612,34.5603],[135.94022,34.55041],[135.94272,34.54073],[135.92929,34.52527],[135.91052,34.51863],[135.90662,34.50219],[135.88796,34.47652],[135.89292,34.46267],[135.88741,34.45341],[135.86724,34.44328],[135.85727,34.45821],[135.8313,34.47933],[135.82655,34.48631],[135.82999,34.50227],[135.81883,34.51123],[135.81846,34.535],[135.82615,34.54855],[135.83169,34.55242],[135.86188,34.54836],[135.87563,34.56128],[135.88705,34.56238],[135.9098,34.58406],[135.9088,34.59138],[135.92487,34.59033]]]]}},{"type":"Feature","id":"29207","properties":{"prefecture":"奈良県","subPrefecture":null,"county":null,"municipality":"五條市","ward":null,"displayName":"五條市"},"geometry":{"type":"MultiPolygon","coordinates":[[[[135.74278,34.38932],[135.75683,34.38588],[135.7593,34.37707],[135.77184,34.37993],[135.77312,34.36709],[135.77019,34.32639],[135.77983,34.32501],[135.77975,34.30769],[135.7739,34.29017],[135.82221,34.27977],[135.84322,34.2699],[135.84505,34.26521],[135.8187,34.24996],[135.81951,34.24332],[135.79034,34.23152],[135.78618,34.23861],[135.77346,34.24131],[135.74843,34.23211],[135.75198,34.22212],[135.74411,34.20548],[135.74606,34.19543],[135.76557,34.18506],[135.78556,34.18341],[135.79571,34.17565],[135.81452,34.18487],[135.82578,34.18134],[135.8557,34.1939],[135.86128,34.19043],[135.85839,34.17638],[135.88967,34.18458],[135.90351,34.1701],[135.91077,34.1556],[135.90507,34.14422],[135.89362,34.1431],[135.88271,34.15056],[135.8636,34.14919],[135.84763,34.13892],[135.82929,34.14273],[135.78882,34.13411],[135.77118,34.15041],[135.75668,34.15329],[135.74452,34.14469],[135.74214,34.13235],[135.72986,34.12321],[135.72442,34.11022],[135.71352,34.09898],[135.71163,34.08962],[135.68889,34.08333],[135.665,34.08435],[135.66786,34.09017],[135.68352,34.09513],[135.69568,34.10417],[135.70019,34.12024],[135.70779,34.12966],[135.72951,34.13883],[135.72795,34.16077],[135.7104,34.16603],[135.69064,34.18561],[135.69791,34.19596],[135.71439,34.20621],[135.70962,34.20879],[135.72748,34.22073],[135.73018,34.2283],[135.72345,34.24008],[135.71845,34.26332],[135.69239,34.27827],[135.68277,34.27018],[135.67276,34.28148],[135.67554,34.28994],[135.66639,34.30869],[135.66813,34.32575],[135.66033,34.32693],[135.66353,34.35544],[135.65584,34.36622],[135.65113,34.38321],[135.66362,34.39712],[135.67555,34.39946],[135.68,34.40832],[135.70164,34.39702],[135.70986,34.39922],[135.72422,34.3874],[135.74278,34.38932]]]]}},{"type":"Feature","id":"29208","properties":{"prefecture":"奈良県","subPrefecture":null,"county":null,"municipality":"御所市","ward":null,"displayName":"御所市"},"geometry":{"type":"MultiPolygon","coordinates":[[[[135.75387,34.47671],[135.75176,34.46474],[135.7636,34.46537],[135.76554,34.44178],[135.75928,34.42924],[135.76542,34.42034],[135.73952,34.40256],[135.74278,34.38932],[135.72422,34.3874],[135.70986,34.39922],[135.70164,34.39702],[135.68,34.40832],[135.66429,34.42311],[135.67861,34.43236],[135.68698,34.45146],[135.68217,34.46487],[135.7023,34.46532],[135.72695,34.47356],[135.74961,34.47355],[135.75068,34.48167],[135.75387,34.47671]]]]}},{"type":"Feature","id":"29209","properties":{"prefecture":"奈良県","subPrefecture":null,"county":null,"municipality":"生駒市","ward":null,"displayName":"生駒市"},"geometry":{"type":"MultiPolygon","coordinates":[[[[135.75551,34.72753],[135.74044,34.72792],[135.73672,34.71857],[135.71635,34.70722],[135.71715,34.69008],[135.72712,34.66515],[135.72658,34.64891],[135.72158,34.64673],[135.72015,34.64649],[135.69132,34.6522],[135.68592,34.66023],[135.6711,34.66156],[135.67869,34.67774],[135.6734,34.70225],[135.70402,34.72362],[135.69783,34.74947],[135.7103,34.75429],[135.70659,34.77245],[135.71197,34.78133],[135.72049,34.77451],[135.72863,34.778],[135.7332,34.75488],[135.75706,34.73592],[135.75551,34.72753]]]]}},{"type":"Feature","id":"29210","properties":{"prefecture":"奈良県","subPrefecture":null,"county":null,"municipality":"香芝市","ward":null,"displayName":"香芝市"},"geometry":{"type":"MultiPolygon","coordinates":[[[[135.67308,34.57073],[135.68089,34.57511],[135.70489,34.57377],[135.70624,34.54819],[135.71988,34.55158],[135.72795,34.54413],[135.72854,34.5312],[135.72025,34.53066],[135.71447,34.51929],[135.69701,34.52498],[135.69514,34.53622],[135.6675,34.53086],[135.66283,34.52963],[135.65577,34.5492],[135.65692,34.56228],[135.67308,34.57073]]]]}},{"type":"Feature","id":"29211","properties":{"prefecture":"奈良県","subPrefecture":null,"county":null,"municipality":"葛城市","ward":null,"displayName":"葛城市"},"geometry":{"type":"MultiPolygon","coordinates":[[[[135.71447,34.51929],[135.71846,34.51026],[135.7302,34.51032],[135.73509,34.49157],[135.74679,34.49167],[135.74196,34.48165],[135.75068,34.48167],[135.74961,34.47355],[135.72695,34.47356],[135.7023,34.46532],[135.68217,34.46487],[135.68481,34.4836],[135.67683,34.50666],[135.67693,34.52553],[135.6675,34.53086],[135.69514,34.53622],[135.69701,34.52498],[135.71447,34.51929]]]]}},{"type":"Feature","id":"29212","properties":{"prefecture":"奈良県","subPrefecture":null,"county":null,"municipality":"宇陀市","ward":null,"displayName":"宇陀市"},"geometry":{"type":"MultiPolygon","coordinates":[[[[136.06247,34.61996],[136.04657,34.60056],[136.05214,34.59306],[136.04652,34.58522],[136.05872,34.57766],[136.06031,34.56942],[136.08362,34.55911],[136.107,34.55631],[136.09777,34.54076],[136.10141,34.52752],[136.08985,34.52605],[136.09321,34.51667],[136.0784,34.49282],[136.07095,34.49189],[136.07269,34.47713],[136.03763,34.47963],[136.04997,34.47018],[136.03052,34.45601],[136.01295,34.45353],[136.00275,34.44241],[135.99233,34.44427],[135.97551,34.43659],[135.9493,34.4356],[135.945,34.42713],[135.93352,34.43025],[135.91872,34.44503],[135.90663,34.44788],[135.89726,34.44288],[135.88741,34.45341],[135.89292,34.46267],[135.88796,34.47652],[135.90662,34.50219],[135.91052,34.51863],[135.92929,34.52527],[135.94272,34.54073],[135.94022,34.55041],[135.94612,34.5603],[135.97205,34.55851],[135.97659,34.56533],[135.96956,34.58665],[135.98114,34.5963],[135.97859,34.60383],[135.99233,34.60958],[135.99959,34.61857],[135.99273,34.62817],[136.00375,34.62508],[136.02525,34.63524],[136.04355,34.62239],[136.06247,34.61996]]]]}},{"type":"Feature","id":"29322","properties":{"prefecture":"奈良県","subPrefecture":null,"county":"山辺郡","municipality":"山添村","ward":null,"displayName":"山添村"},"geometry":{"type":"MultiPolygon","coordinates":[[[[136.06247,34.61996],[136.04355,34.62239],[136.02525,34.63524],[136.00375,34.62508],[135.99273,34.62817],[136.00006,34.64112],[135.98886,34.65618],[135.99357,34.66743],[135.97391,34.65461],[135.95702,34.65487],[135.96001,34.6706],[135.95283,34.6807],[135.9698,34.68573],[135.98631,34.69915],[135.9897,34.68649],[136.01775,34.68544],[136.02132,34.69504],[136.03539,34.69421],[136.04265,34.70295],[136.05486,34.70292],[136.07462,34.6981],[136.08626,34.67495],[136.07778,34.65876],[136.06451,34.65196],[136.04399,34.66023],[136.05047,34.6523],[136.06485,34.65156],[136.07358,34.63409],[136.06247,34.61996]]]]}},{"type":"Feature","id":"29342","properties":{"prefecture":"奈良県","subPrefecture":null,"county":"生駒郡","municipality":"平群町","ward":null,"displayName":"平群町"},"geometry":{"type":"MultiPolygon","coordinates":[[[[135.6711,34.66156],[135.68592,34.66023],[135.69132,34.6522],[135.72015,34.64649],[135.71608,34.64051],[135.72111,34.6273],[135.7099,34.60973],[135.69764,34.61593],[135.66896,34.60833],[135.65877,34.61473],[135.6632,34.62952],[135.66491,34.65272],[135.6711,34.66156]]]]}},{"type":"Feature","id":"29343","properties":{"prefecture":"奈良県","subPrefecture":null,"county":"生駒郡","municipality":"三郷町","ward":null,"displayName":"三郷町"},"geometry":{"type":"MultiPolygon","coordinates":[[[[135.65877,34.61473],[135.66896,34.60833],[135.69764,34.61593],[135.7099,34.60973],[135.7093,34.59896],[135.69928,34.60096],[135.69653,34.59298],[135.68176,34.58478],[135.6711,34.60375],[135.66117,34.60191],[135.65012,34.60783],[135.65877,34.61473]]]]}},{"type":"Feature","id":"29344","properties":{"prefecture":"奈良県","subPrefecture":null,"county":"生駒郡","municipality":"斑鳩町","ward":null,"displayName":"斑鳩町"},"geometry":{"type":"MultiPolygon","coordinates":[[[[135.75694,34.61873],[135.74154,34.59318],[135.72686,34.59067],[135.71571,34.59488],[135.7093,34.59896],[135.7099,34.60973],[135.72111,34.6273],[135.71608,34.64051],[135.72015,34.64649],[135.72158,34.64673],[135.72979,34.63161],[135.75694,34.61873]]]]}},{"type":"Feature","id":"29345","properties":{"prefecture":"奈良県","subPrefecture":null,"county":"生駒郡","municipality":"安堵町","ward":null,"displayName":"安堵町"},"geometry":{"type":"MultiPolygon","coordinates":[[[[135.76751,34.59713],[135.75163,34.59196],[135.74154,34.59318],[135.75694,34.61873],[135.76867,34.61016],[135.76751,34.59713]]]]}},{"type":"Feature","id":"29361","properties":{"prefecture":"奈良県","subPrefecture":null,"county":"磯城郡","municipality":"川西町","ward":null,"displayName":"川西町"},"geometry":{"type":"MultiPolygon","coordinates":[[[[135.7864,34.59585],[135.79438,34.58692],[135.78658,34.58004],[135.75317,34.58058],[135.75163,34.59196],[135.76751,34.59713],[135.7864,34.59585]]]]}},{"type":"Feature","id":"29362","properties":{"prefecture":"奈良県","subPrefecture":null,"county":"磯城郡","municipality":"三宅町","ward":null,"displayName":"三宅町"},"geometry":{"type":"MultiPolygon","coordinates":[[[[135.75255,34.57832],[135.75317,34.58058],[135.78658,34.58004],[135.7903,34.57786],[135.79358,34.567],[135.77366,34.57007],[135.76337,34.56151],[135.76265,34.57272],[135.75255,34.57832]]]]}},{"type":"Feature","id":"29363","properties":{"prefecture":"奈良県","subPrefecture":null,"county":"磯城郡","municipality":"田原本町","ward":null,"displayName":"田原本町"},"geometry":{"type":"MultiPolygon","coordinates":[[[[135.82615,34.54855],[135.81846,34.535],[135.79558,34.53685],[135.79571,34.53082],[135.76986,34.53532],[135.76248,34.55277],[135.76337,34.56151],[135.77366,34.57007],[135.79358,34.567],[135.7903,34.57786],[135.8051,34.58405],[135.81249,34.5739],[135.81152,34.56416],[135.82084,34.5606],[135.82615,34.54855]]]]}},{"type":"Feature","id":"29385","properties":{"prefecture":"奈良県","subPrefecture":null,"county":"宇陀郡","municipality":"曽爾村","ward":null,"displayName":"曽爾村"},"geometry":{"type":"MultiPolygon","coordinates":[[[[136.1674,34.52017],[136.14744,34.49653],[136.1184,34.49529],[136.10995,34.49131],[136.09869,34.47627],[136.08196,34.47331],[136.07269,34.47713],[136.07095,34.49189],[136.0784,34.49282],[136.09321,34.51667],[136.08985,34.52605],[136.10141,34.52752],[136.09777,34.54076],[136.107,34.55631],[136.11363,34.54645],[136.13395,34.55523],[136.15558,34.55967],[136.15977,34.54671],[136.17177,34.53482],[136.1674,34.52017]]]]}},{"type":"Feature","id":"29386","properties":{"prefecture":"奈良県","subPrefecture":null,"county":"宇陀郡","municipality":"御杖村","ward":null,"displayName":"御杖村"},"geometry":{"type":"MultiPolygon","coordinates":[[[[136.0959,34.43522],[136.08196,34.47331],[136.09869,34.47627],[136.10995,34.49131],[136.1184,34.49529],[136.14744,34.49653],[136.1674,34.52017],[136.1824,34.51693],[136.18978,34.52396],[136.21663,34.52798],[136.21978,34.51589],[136.21467,34.50131],[136.22904,34.49472],[136.21556,34.48115],[136.20536,34.44835],[136.18852,34.4506],[136.17848,34.44552],[136.15824,34.44901],[136.15144,34.44185],[136.12837,34.44529],[136.11126,34.4357],[136.0959,34.43522]]]]}},{"type":"Feature","id":"29401","properties":{"prefecture":"奈良県","subPrefecture":null,"county":"高市郡","municipality":"高取町","ward":null,"displayName":"高取町"},"geometry":{"type":"MultiPolygon","coordinates":[[[[135.78844,34.46726],[135.78056,34.46255],[135.79765,34.46027],[135.80535,34.44317],[135.82063,34.44622],[135.84676,34.42896],[135.82937,34.42625],[135.81779,34.41264],[135.81249,34.42233],[135.78189,34.41781],[135.76542,34.42034],[135.75928,34.42924],[135.76554,34.44178],[135.7636,34.46537],[135.77453,34.47117],[135.78844,34.46726]]]]}},{"type":"Feature","id":"29402","properties":{"prefecture":"奈良県","subPrefecture":null,"county":"高市郡","municipality":"明日香村","ward":null,"displayName":"明日香村"},"geometry":{"type":"MultiPolygon","coordinates":[[[[135.78844,34.46726],[135.80825,34.47077],[135.81213,34.48392],[135.8095,34.49552],[135.82655,34.48631],[135.8313,34.47933],[135.85727,34.45821],[135.86724,34.44328],[135.84676,34.42896],[135.82063,34.44622],[135.80535,34.44317],[135.79765,34.46027],[135.78056,34.46255],[135.78844,34.46726]]]]}},{"type":"Feature","id":"29424","properties":{"prefecture":"奈良県","subPrefecture":null,"county":"北葛城郡","municipality":"上牧町","ward":null,"displayName":"上牧町"},"geometry":{"type":"MultiPolygon","coordinates":[[[[135.71988,34.55158],[135.70624,34.54819],[135.70489,34.57377],[135.7121,34.58244],[135.72704,34.57702],[135.72594,34.55544],[135.71988,34.55158]]]]}},{"type":"Feature","id":"29425","properties":{"prefecture":"奈良県","subPrefecture":null,"county":"北葛城郡","municipality":"王寺町","ward":null,"displayName":"王寺町"},"geometry":{"type":"MultiPolygon","coordinates":[[[[135.7121,34.58244],[135.70489,34.57377],[135.68089,34.57511],[135.67308,34.57073],[135.6706,34.5762],[135.68176,34.58478],[135.69653,34.59298],[135.69928,34.60096],[135.7093,34.59896],[135.71571,34.59488],[135.7121,34.58244]]]]}},{"type":"Feature","id":"29426","properties":{"prefecture":"奈良県","subPrefecture":null,"county":"北葛城郡","municipality":"広陵町","ward":null,"displayName":"広陵町"},"geometry":{"type":"MultiPolygon","coordinates":[[[[135.75255,34.57832],[135.76265,34.57272],[135.76337,34.56151],[135.76248,34.55277],[135.76986,34.53532],[135.76447,34.52949],[135.75075,34.532],[135.73848,34.52721],[135.72854,34.5312],[135.72795,34.54413],[135.71988,34.55158],[135.72594,34.55544],[135.73706,34.55778],[135.7379,34.57692],[135.75255,34.57832]],[[135.7412,34.56163],[135.7412,34.56163],[135.7412,34.56163],[135.7412,34.56163]]]]}},{"type":"Feature","id":"29427","properties":{"prefecture":"奈良県","subPrefecture":null,"county":"北葛城郡","municipality":"河合町","ward":null,"displayName":"河合町"},"geometry":{"type":"MultiPolygon","coordinates":[[[[135.74154,34.59318],[135.75163,34.59196],[135.75317,34.58058],[135.75255,34.57832],[135.7379,34.57692],[135.73706,34.55778],[135.72594,34.55544],[135.72704,34.57702],[135.7121,34.58244],[135.71571,34.59488],[135.72686,34.59067],[135.74154,34.59318]]],[[[135.7412,34.56163],[135.7412,34.56163],[135.7412,34.56163],[135.7412,34.56163]]]]}},{"type":"Feature","id":"29441","properties":{"prefecture":"奈良県","subPrefecture":null,"county":"吉野郡","municipality":"吉野町","ward":null,"displayName":"吉野町"},"geometry":{"type":"MultiPolygon","coordinates":[[[[135.97551,34.43659],[135.97953,34.42909],[135.95744,34.41319],[135.95978,34.40623],[135.93879,34.39686],[135.94187,34.3861],[135.93671,34.37492],[135.93274,34.36931],[135.91225,34.36329],[135.8884,34.33981],[135.87817,34.33282],[135.86795,34.34579],[135.86754,34.35382],[135.84921,34.35741],[135.82153,34.37329],[135.81801,34.38735],[135.84333,34.3932],[135.85299,34.39898],[135.85839,34.41546],[135.84676,34.42896],[135.86724,34.44328],[135.88741,34.45341],[135.89726,34.44288],[135.90663,34.44788],[135.91872,34.44503],[135.93352,34.43025],[135.945,34.42713],[135.9493,34.4356],[135.97551,34.43659]]]]}},{"type":"Feature","id":"29442","properties":{"prefecture":"奈良県","subPrefecture":null,"county":"吉野郡","municipality":"大淀町","ward":null,"displayName":"大淀町"},"geometry":{"type":"MultiPolygon","coordinates":[[[[135.81801,34.38735],[135.79736,34.38512],[135.78639,34.37949],[135.77184,34.37993],[135.7593,34.37707],[135.75683,34.38588],[135.74278,34.38932],[135.73952,34.40256],[135.76542,34.42034],[135.78189,34.41781],[135.81249,34.42233],[135.81779,34.41264],[135.82937,34.42625],[135.84676,34.42896],[135.85839,34.41546],[135.85299,34.39898],[135.84333,34.3932],[135.81801,34.38735]]]]}},{"type":"Feature","id":"29443","properties":{"prefecture":"奈良県","subPrefecture":null,"county":"吉野郡","municipality":"下市町","ward":null,"displayName":"下市町"},"geometry":{"type":"MultiPolygon","coordinates":[[[[135.86795,34.34579],[135.85252,34.32998],[135.84003,34.33234],[135.82162,34.32299],[135.81499,34.31193],[135.82379,34.30443],[135.82221,34.27977],[135.7739,34.29017],[135.77975,34.30769],[135.77983,34.32501],[135.77019,34.32639],[135.77312,34.36709],[135.77184,34.37993],[135.78639,34.37949],[135.79736,34.38512],[135.81801,34.38735],[135.82153,34.37329],[135.84921,34.35741],[135.86754,34.35382],[135.86795,34.34579]]]]}},{"type":"Feature","id":"29444","properties":{"prefecture":"奈良県","subPrefecture":null,"county":"吉野郡","municipality":"黒滝村","ward":null,"displayName":"黒滝村"},"geometry":{"type":"MultiPolygon","coordinates":[[[[135.8884,34.33981],[135.90327,34.33081],[135.91278,34.31421],[135.91447,34.28463],[135.90178,34.29262],[135.89263,34.28861],[135.85649,34.28341],[135.84322,34.2699],[135.82221,34.27977],[135.82379,34.30443],[135.81499,34.31193],[135.82162,34.32299],[135.84003,34.33234],[135.85252,34.32998],[135.86795,34.34579],[135.87817,34.33282],[135.8884,34.33981]]]]}},{"type":"Feature","id":"29446","properties":{"prefecture":"奈良県","subPrefecture":null,"county":"吉野郡","municipality":"天川村","ward":null,"displayName":"天川村"},"geometry":{"type":"MultiPolygon","coordinates":[[[[135.91447,34.28463],[135.94275,34.27472],[135.96282,34.27444],[135.95789,34.26877],[135.97308,34.25624],[135.963,34.23571],[135.96297,34.22786],[135.95579,34.22558],[135.9453,34.20473],[135.94312,34.18007],[135.91418,34.17993],[135.90351,34.1701],[135.88967,34.18458],[135.85839,34.17638],[135.86128,34.19043],[135.8557,34.1939],[135.82578,34.18134],[135.81452,34.18487],[135.79571,34.17565],[135.78556,34.18341],[135.76557,34.18506],[135.74606,34.19543],[135.74411,34.20548],[135.75198,34.22212],[135.74843,34.23211],[135.77346,34.24131],[135.78618,34.23861],[135.79034,34.23152],[135.81951,34.24332],[135.8187,34.24996],[135.84505,34.26521],[135.84322,34.2699],[135.85649,34.28341],[135.89263,34.28861],[135.90178,34.29262],[135.91447,34.28463]]]]}},{"type":"Feature","id":"29447","properties":{"prefecture":"奈良県","subPrefecture":null,"county":"吉野郡","municipality":"野迫川村","ward":null,"displayName":"野迫川村"},"geometry":{"type":"MultiPolygon","coordinates":[[[[135.70962,34.20879],[135.71439,34.20621],[135.69791,34.19596],[135.69064,34.18561],[135.7104,34.16603],[135.72795,34.16077],[135.72951,34.13883],[135.70779,34.12966],[135.70019,34.12024],[135.69568,34.10417],[135.68352,34.09513],[135.66786,34.09017],[135.665,34.08435],[135.64119,34.07585],[135.62336,34.06531],[135.59779,34.07877],[135.57447,34.07849],[135.55132,34.06842],[135.5397,34.07538],[135.54979,34.08498],[135.54737,34.10039],[135.5573,34.10805],[135.57879,34.11637],[135.59086,34.149],[135.62192,34.15842],[135.6206,34.16852],[135.63762,34.17927],[135.64511,34.19067],[135.63448,34.20459],[135.64808,34.21899],[135.65529,34.21628],[135.66782,34.22419],[135.67769,34.22344],[135.69781,34.21183],[135.70962,34.20879]]]]}},{"type":"Feature","id":"29449","properties":{"prefecture":"奈良県","subPrefecture":null,"county":"吉野郡","municipality":"十津川村","ward":null,"displayName":"十津川村"},"geometry":{"type":"MultiPolygon","coordinates":[[[[135.90507,34.14422],[135.91527,34.12644],[135.90155,34.11366],[135.90642,34.09902],[135.89815,34.08603],[135.90107,34.07823],[135.89081,34.06699],[135.89645,34.05725],[135.89672,34.04201],[135.91098,34.02972],[135.90179,34.02001],[135.90852,33.99897],[135.89853,33.98282],[135.91567,33.97259],[135.90229,33.95391],[135.89362,33.94955],[135.89843,33.92669],[135.90908,33.91847],[135.8937,33.92001],[135.89395,33.90615],[135.88217,33.90783],[135.88022,33.91793],[135.86894,33.91446],[135.85872,33.90119],[135.86109,33.88714],[135.87162,33.88865],[135.88269,33.87887],[135.87482,33.87288],[135.87314,33.85917],[135.86219,33.86272],[135.86212,33.87655],[135.84705,33.8966],[135.83686,33.8954],[135.81632,33.90561],[135.80336,33.90298],[135.80182,33.89582],[135.77765,33.88818],[135.76606,33.89079],[135.75594,33.88519],[135.74224,33.89005],[135.72411,33.90329],[135.68538,33.90372],[135.67871,33.89817],[135.6606,33.89757],[135.6622,33.88908],[135.64804,33.87694],[135.61786,33.87211],[135.6265,33.88323],[135.62287,33.89796],[135.6062,33.89912],[135.6,33.90844],[135.61037,33.91299],[135.61684,33.93688],[135.6181,33.95461],[135.63695,33.95055],[135.64032,33.96742],[135.63625,33.99076],[135.62421,34.00021],[135.62523,34.00736],[135.60838,34.01362],[135.59573,34.01159],[135.59149,34.01937],[135.59961,34.03174],[135.59461,34.04399],[135.58049,34.05791],[135.56706,34.05735],[135.55132,34.06842],[135.57447,34.07849],[135.59779,34.07877],[135.62336,34.06531],[135.64119,34.07585],[135.665,34.08435],[135.68889,34.08333],[135.71163,34.08962],[135.71352,34.09898],[135.72442,34.11022],[135.72986,34.12321],[135.74214,34.13235],[135.74452,34.14469],[135.75668,34.15329],[135.77118,34.15041],[135.78882,34.13411],[135.82929,34.14273],[135.84763,34.13892],[135.8636,34.14919],[135.88271,34.15056],[135.89362,34.1431],[135.90507,34.14422]]]]}},{"type":"Feature","id":"29450","properties":{"prefecture":"奈良県","subPrefecture":null,"county":"吉野郡","municipality":"下北山村","ward":null,"displayName":"下北山村"},"geometry":{"type":"MultiPolygon","coordinates":[[[[136.05562,34.0352],[136.02298,34.03652],[136.00735,34.01975],[136.00249,34.00699],[135.98948,34.00225],[135.98461,33.99164],[135.95398,33.98033],[135.92656,33.98145],[135.91567,33.97259],[135.89853,33.98282],[135.90852,33.99897],[135.90179,34.02001],[135.91098,34.02972],[135.89672,34.04201],[135.89645,34.05725],[135.89081,34.06699],[135.90107,34.07823],[135.89815,34.08603],[135.90642,34.09902],[135.90155,34.11366],[135.91527,34.12644],[135.93619,34.12228],[135.94436,34.11147],[135.95365,34.11112],[135.96732,34.10131],[135.9688,34.0668],[135.9806,34.06084],[136.00529,34.07588],[136.00978,34.06782],[136.02991,34.05523],[136.04137,34.05735],[136.05562,34.0352]]]]}},{"type":"Feature","id":"29451","properties":{"prefecture":"奈良県","subPrefecture":null,"county":"吉野郡","municipality":"上北山村","ward":null,"displayName":"上北山村"},"geometry":{"type":"MultiPolygon","coordinates":[[[[136.09345,34.1957],[136.0962,34.18781],[136.10886,34.18514],[136.1056,34.17162],[136.11462,34.15953],[136.10195,34.14133],[136.1084,34.12678],[136.09968,34.12042],[136.10787,34.10309],[136.10227,34.09625],[136.11865,34.08232],[136.09775,34.08674],[136.09203,34.04834],[136.10437,34.02806],[136.09652,34.02243],[136.07293,34.03379],[136.05562,34.0352],[136.04137,34.05735],[136.02991,34.05523],[136.00978,34.06782],[136.00529,34.07588],[135.9806,34.06084],[135.9688,34.0668],[135.96732,34.10131],[135.95365,34.11112],[135.94436,34.11147],[135.93619,34.12228],[135.91527,34.12644],[135.90507,34.14422],[135.91077,34.1556],[135.90351,34.1701],[135.91418,34.17993],[135.94312,34.18007],[135.9453,34.20473],[135.95579,34.22558],[135.96297,34.22786],[135.97254,34.22451],[135.99648,34.22873],[136.00357,34.23342],[136.02499,34.23474],[136.02486,34.2245],[136.03494,34.20816],[136.05782,34.20706],[136.06415,34.19947],[136.07422,34.20104],[136.09345,34.1957]]]]}},{"type":"Feature","id":"29452","properties":{"prefecture":"奈良県","subPrefecture":null,"county":"吉野郡","municipality":"川上村","ward":null,"displayName":"川上村"},"geometry":{"type":"MultiPolygon","coordinates":[[[[136.09081,34.36255],[136.09552,34.35981],[136.10236,34.33605],[136.1204,34.32679],[136.12951,34.31617],[136.11165,34.30501],[136.0949,34.30145],[136.09783,34.28882],[136.11199,34.28074],[136.12183,34.26713],[136.11806,34.2606],[136.13185,34.2519],[136.10965,34.22422],[136.1173,34.22311],[136.11531,34.21037],[136.09758,34.20247],[136.09345,34.1957],[136.07422,34.20104],[136.06415,34.19947],[136.05782,34.20706],[136.03494,34.20816],[136.02486,34.2245],[136.02499,34.23474],[136.00357,34.23342],[135.99648,34.22873],[135.97254,34.22451],[135.96297,34.22786],[135.963,34.23571],[135.97308,34.25624],[135.95789,34.26877],[135.96282,34.27444],[135.94275,34.27472],[135.91447,34.28463],[135.91278,34.31421],[135.90327,34.33081],[135.8884,34.33981],[135.91225,34.36329],[135.93274,34.36931],[135.93671,34.37492],[135.95538,34.37435],[135.96953,34.38126],[135.98111,34.36345],[135.98159,34.35445],[135.99816,34.3498],[136.01761,34.35623],[136.03074,34.34583],[136.04627,34.34379],[136.06386,34.34654],[136.06874,34.36416],[136.09081,34.36255]]]]}},{"type":"Feature","id":"29453","properties":{"prefecture":"奈良県","subPrefecture":null,"county":"吉野郡","municipality":"東吉野村","ward":null,"displayName":"東吉野村"},"geometry":{"type":"MultiPolygon","coordinates":[[[[136.07269,34.47713],[136.08196,34.47331],[136.0959,34.43522],[136.0887,34.42872],[136.09027,34.41604],[136.07654,34.40586],[136.06931,34.38934],[136.08629,34.37938],[136.09081,34.36255],[136.06874,34.36416],[136.06386,34.34654],[136.04627,34.34379],[136.03074,34.34583],[136.01761,34.35623],[135.99816,34.3498],[135.98159,34.35445],[135.98111,34.36345],[135.96953,34.38126],[135.95538,34.37435],[135.93671,34.37492],[135.94187,34.3861],[135.93879,34.39686],[135.95978,34.40623],[135.95744,34.41319],[135.97953,34.42909],[135.97551,34.43659],[135.99233,34.44427],[136.00275,34.44241],[136.01295,34.45353],[136.03052,34.45601],[136.04997,34.47018],[136.03763,34.47963],[136.07269,34.47713]]]]}}]}
